{"type": "FeatureCollection", "features": [{"type": "Feature", "geometry": {"type": "Polygon", "coordinates": [[[-40.6561, -20.4602], [-40.6603, -20.4501], [-40.6736, -20.4501], [-40.685, -20.4406], [-40.6884, -20.4344], [-40.7047, -20.4349], [-40.7144, -20.4411], [-40.7085, -20.4471], [-40.7114, -20.46], [-40.7231, -20.4582], [-40.7355, -20.4704], [-40.7433, -20.4848], [-40.7538, -20.4985], [-40.7789, -20.4977], [-40.7826, -20.5066], [-40.793, -20.5077], [-40.7981, -20.5143], [-40.8089, -20.5213], [-40.8218, -20.5182], [-40.8174, -20.5088], [-40.8096, -20.4999], [-40.8084, -20.487], [-40.8164, -20.4835], [-40.8225, -20.4887], [-40.8279, -20.4849], [-40.8365, -20.4882], [-40.8414, -20.4849], [-40.8552, -20.4918], [-40.8613, -20.4886], [-40.8679, -20.4781], [-40.8696, -20.4649], [-40.884, -20.4629], [-40.8943, -20.4642], [-40.902, -20.4619], [-40.9124, -20.4487], [-40.93, -20.4369], [-40.9477, -20.4392], [-40.9627, -20.4341], [-40.9881, -20.4368], [-40.9848, -20.4483], [-40.9871, -20.4582], [-40.9776, -20.456], [-40.9689, -20.4626], [-40.9724, -20.4807], [-40.9659, -20.4836], [-40.9689, -20.4963], [-40.9598, -20.4975], [-40.9585, -20.5089], [-40.9621, -20.5381], [-40.9662, -20.5425], [-40.9568, -20.5528], [-40.9566, -20.5617], [-40.9671, -20.5645], [-40.9683, -20.5764], [-40.9576, -20.5905], [-40.9589, -20.5985], [-40.945, -20.6063], [-40.9363, -20.5996], [-40.9292, -20.6068], [-40.9226, -20.6083], [-40.9102, -20.6185], [-40.9108, -20.6335], [-40.9158, -20.6439], [-40.9256, -20.6477], [-40.9264, -20.6533], [-40.9342, -20.6628], [-40.9336, -20.6734], [-40.9297, -20.6782], [-40.9223, -20.6765], [-40.9206, -20.6835], [-40.9099, -20.6859], [-40.8969, -20.6778], [-40.8883, -20.676], [-40.8821, -20.6704], [-40.8644, -20.6788], [-40.8558, -20.6856], [-40.8386, -20.6876], [-40.8394, -20.6779], [-40.8081, -20.6932], [-40.7982, -20.6953], [-40.7843, -20.703], [-40.7708, -20.7055], [-40.768, -20.6995], [-40.7708, -20.6912], [-40.7703, -20.6772], [-40.7592, -20.658], [-40.7443, -20.6582], [-40.7473, -20.6516], [-40.7435, -20.6469], [-40.7275, -20.6467], [-40.7258, -20.6347], [-40.7166, -20.6262], [-40.7112, -20.6143], [-40.6902, -20.6053], [-40.6853, -20.5993], [-40.6721, -20.5948], [-40.6712, -20.58], [-40.6838, -20.576], [-40.6843, -20.566], [-40.6805, -20.5572], [-40.672, -20.5531], [-40.673, -20.5448], [-40.6877, -20.5394], [-40.7022, -20.5366], [-40.7003, -20.5272], [-40.6935, -20.5262], [-40.6952, -20.5052], [-40.6913, -20.4988], [-40.6847, -20.4998], [-40.6748, -20.4793], [-40.6771, -20.4687], [-40.6561, -20.4602]]]}, "properties": {"codarea": "3200300"}}]}